[{"OBJECT_NAME":"ORBITER SN3","OBJECT_ID":"2023-084AE","EPOCH":"2026-03-09T23:12:21.976128","MEAN_MOTION":15.32943891,"ECCENTRICITY":0.00075889,"INCLINATION":97.61,"RA_OF_ASC_NODE":206.6768,"ARG_OF_PERICENTER":331.7947,"MEAN_ANOMALY":28.2883,"EPHEMERIS_TYPE":0,"CLASSIFICATION_TYPE":"U","NORAD_CAT_ID":56960,"ELEMENT_SET_NO":999,"REV_AT_EPOCH":15228,"BSTAR":0.00032835432,"MEAN_MOTION_DOT":0.00010378,"MEAN_MOTION_DDOT":0},{"OBJECT_NAME":"STARLINK-34176","OBJECT_ID":"2025-110J","EPOCH":"2026-03-09T06:17:54.905856","MEAN_MOTION":15.30200848,"ECCENTRICITY":0.00010186,"INCLINATION":53.1611,"RA_OF_ASC_NODE":28.9913,"ARG_OF_PERICENTER":111.9699,"MEAN_ANOMALY":248.141,"EPHEMERIS_TYPE":0,"CLASSIFICATION_TYPE":"U","NORAD_CAT_ID":64104,"ELEMENT_SET_NO":999,"REV_AT_EPOCH":4581,"BSTAR":0.00054566049,"MEAN_MOTION_DOT":0.00015837,"MEAN_MOTION_DDOT":0}]
